STARLINK-31707          
1 59736U 24090G   25194.06592070  .00004676  00000+0  17932-3 0  9992
2 59736  43.0019  96.6896 0001158 254.1645 105.9079 15.27585483 66804
STARLINK-31821          
1 59737U 24090H   25193.75056784  .00005455  00000+0  20769-3 0  9993
2 59737  42.9994  98.6203 0001215 274.1307  85.9405 15.27568033 66699
STARLINK-31819          
1 59738U 24090J   25194.07363720  .00001303  00000+0  56858-4 0  9998
2 59738  43.0008  96.7465 0001203 271.6783  88.3931 15.27573084 66754
STARLINK-31726          
1 59739U 24090K   25193.78639623  .00001573  00000+0  66688-4 0  9995
2 59739  43.0022  98.0333 0001330 269.3789  90.6910 15.27565812 66754
STARLINK-31759          
1 59740U 24090L   25194.09548214 -.00002575  00000+0 -84065-4 0  9991
2 59740  43.0043  96.9125 0001333 274.1964  85.8735 15.27582472 66793
STARLINK-31818          
1 59741U 24090M   25193.43390897 -.00001893  00000+0 -59281-4 0  9995
2 59741  43.0007 100.5441 0001077 275.6464  84.4264 15.27588321 66693
STARLINK-31816          
1 59742U 24090N   25193.77497153 -.00000118  00000+0  52391-5 0  9990
2 59742  43.0009  98.7880 0001068 267.1702  92.9028 15.27577541 66720
STARLINK-31809          
1 59743U 24090P   25193.41175370  .00000488  00000+0  27242-4 0  9991
2 59743  43.0013  93.4558 0000449 217.6995 142.3825 15.27579673 66774
STARLINK-31779          
1 59744U 24090Q   25193.72872671  .00001118  00000+0  50203-4 0  9998
2 59744  43.0035  98.4598 0001572 270.7227  89.3445 15.27549150 66746
STARLINK-31805          
1 59745U 24090R   25194.10949102  .00024447  00000+0  89841-3 0  9995
2 59745  43.0032  96.1569 0000469 214.3213 145.7608 15.27453593 66800
STARLINK-31681          
1 59746U 24090S   25194.06946549 -.00000378  00000+0 -42214-5 0  9997
2 59746  43.0005  89.7892 0001313 261.4900  98.5802 15.27582890 66874
STARLINK-31636          
1 59747U 24090T   25193.79668259 -.00001139  00000+0 -31878-4 0  9995
2 59747  43.0025  98.1091 0001194 280.3682  79.7035 15.27570920 66753
STARLINK-31640          
1 59748U 24090U   25193.74799379  .00000013  00000+0  10007-4 0  9998
2 59748  43.0025  98.5974 0001471 256.5930 103.4758 15.27575785 66747
STARLINK-31677          
1 59749U 24090V   25194.09162470  .00001516  00000+0  64580-4 0  9998
2 59749  43.0000  96.8812 0001202 275.7459  84.3255 15.27582396 66806
STARLINK-31783          
1 59750U 24090W   25194.09933772  .00000289  00000+0  20022-4 0  9990
2 59750  43.0020  96.9389 0001036 276.3623  83.7110 15.27580484 66804
STARLINK-31808          
1 59751U 24090X   25194.10562140  .00000285  00000+0  19895-4 0  9992
2 59751  43.0030  96.1310 0000992 318.8531  41.2246 15.27569286 66808
STARLINK-31822          
1 59752U 24090Y   25193.73514496  .00000349  00000+0  22195-4 0  9990
2 59752  43.0016  98.5030 0001133 241.7617 118.3120 15.27580929 66731
STARLINK-11118 [DTC]    
1 59754U 24091B   25193.49592806 -.00003705  00000+0 -25792-4 0  9994
2 59754  53.1588 310.6686 0000125 106.5491 253.5541 15.69674289 67786
STARLINK-11132 [DTC]    
1 59755U 24091C   25193.74075818  .00000112  00000+0  57798-5 0  9991
2 59755  53.1565 309.3489 0000707 100.2142 259.8956 15.69707611 67840
STARLINK-11131 [DTC]    
1 59756U 24091D   25193.48118162 -.00001295  00000+0 -58370-5 0  9995
2 59756  53.1598 310.5692 0000790 100.2943 259.8164 15.69703979 67785
STARLINK-11114 [DTC]    
1 59757U 24091E   25193.73094749  .00000223  00000+0  66901-5 0  9995
2 59757  53.1588 309.3029 0000759  76.1279 283.9823 15.69716039 67829
STARLINK-11105 [DTC]    
1 59758U 24091F   25194.04441996 -.00003089  00000+0 -20669-4 0  9996
2 59758  53.1589 307.6973 0001042  95.4658 264.6478 15.69686418 67831
STARLINK-11097 [DTC]    
1 59759U 24091G   25194.03947657 -.00002452  00000+0 -15382-4 0  9990
2 59759  53.1592 307.6445 0000604  67.3956 292.7126 15.69723881 67885
STARLINK-11098 [DTC]    
1 59760U 24091H   25193.71623365 -.00000819  00000+0 -19076-5 0  9993
2 59760  53.1589 309.1831 0000761  78.5192 281.5911 15.69706256 67828
STARLINK-11117 [DTC]    
1 59761U 24091J   25193.52032138 -.00000632  00000+0 -36320-6 0  9990
2 59761  53.1578 310.0907 0000721  49.5602 310.5479 15.69706200 67799
STARLINK-11110 [DTC]    
1 59762U 24091K   25193.51541517 -.00000695  00000+0 -88838-6 0  9996
2 59762  53.1571 310.0570 0000351  53.9767 306.1284 15.69702150 67794
STARLINK-11104 [DTC]    
1 59763U 24091L   25193.51050811 -.00000452  00000+0  11251-5 0  9993
2 59763  53.1580 310.0230 0000766 111.5036 248.6064 15.69707965 67793
STARLINK-11111 [DTC]    
1 59764U 24091M   25193.50070369 -.00001358  00000+0 -63608-5 0  9993
2 59764  53.1582 309.9610 0000601  63.3502 296.7578 15.69701338 67797
STARLINK-11106 [DTC]    
1 59765U 24091N   25193.69661099  .00000255  00000+0  69581-5 0  9999
2 59765  53.1574 309.0507 0000952 117.1246 242.9869 15.69707873 67827
STARLINK-31739          
1 59766U 24091P   25193.90524270 -.00000818  00000+0 -15494-4 0  9993
2 59766  53.1603  57.7400 0001038  86.5755 273.5364 15.30191251 66330
STARLINK-31828          
1 59767U 24091Q   25193.92065621 -.00000306  00000+0  17847-5 0  9992
2 59767  53.1603  60.6628 0001134  86.8450 273.2680 15.30189158 66294
STARLINK-31826          
1 59768U 24091R   25193.92379485  .00003024  00000+0  11413-3 0  9999
2 59768  53.1604  60.6840 0000949  76.1685 283.9422 15.30217526 66302
STARLINK-31830          
1 59769U 24091S   25193.92698673 -.00000265  00000+0  31830-5 0  9995
2 59769  53.1619  60.7034 0000861  74.5267 285.5829 15.30189030 66291
STARLINK-31829          
1 59770U 24091T   25193.91749139  .00001132  00000+0  50363-4 0  9994
2 59770  53.1595  60.6465 0001025  70.2319 289.8792 15.30184490 66052
STARLINK-31786          
1 59771U 24091U   25193.93121248 -.00001733  00000+0 -46432-4 0  9993
2 59771  53.1601  60.7308 0001461  93.2565 266.8603 15.30184680 66293
STARLINK-31835          
1 59772U 24091V   25193.65306137 -.00000094  00000+0  89416-5 0  9993
2 59772  53.1600  61.8346 0001020  75.3962 284.7152 15.30194366 66256
COSMOS 2576             
1 59773U 24092A   25193.87815004  .00008471  00000+0  33083-3 0  9990
2 59773  97.4160 307.4963 0005900  62.9397 297.2442 15.26122003 64666
2024-092B               
1 59774U 24092B   25194.17110481  .00005951  00000+0  27646-3 0  9990
2 59774  97.6179 312.0125 0009183 289.0676  70.9563 15.20354103 63885
2024-092C               
1 59775U 24092C   25194.14835153  .00006504  00000+0  29791-3 0  9996
2 59775  97.6310 312.9138 0009222 292.8810  67.1451 15.20803375 63909
2024-092D               
1 59776U 24092D   25194.06888156  .00009474  00000+0  40490-3 0  9997
2 59776  97.6257 312.7534 0008294 262.7096  97.3198 15.23051231 63900
2024-092E               
1 59777U 24092E   25194.13440961  .00009380  00000+0  40134-3 0  9995
2 59777  97.6256 312.8135 0008566 262.7431  97.2831 15.23012783 63916
2024-092F               
1 59778U 24092F   25193.76526545  .00008288  00000+0  35179-3 0  9996
2 59778  97.6252 312.5096 0008680 265.0804  94.9441 15.23324002 63868
2024-092G               
1 59779U 24092G   25194.14399832  .00000378  00000+0  15829-3 0  9999
2 59779  98.6398 309.2390 0013370 124.5605 235.6842 14.31627944 60383
2024-092H               
1 59780U 24092H   25194.14399325  .00000135  00000+0  67351-4 0  9997
2 59780  98.6398 309.2348 0013350 124.4145 235.8302 14.31626270 60388
2024-092J               
1 59781U 24092J   25194.21262696  .00000140  00000+0  69158-4 0  9999
2 59781  98.6398 309.3070 0013253 124.4657 235.7780 14.31627189 60392
STARLINK-31363          
1 59782U 24093A   25194.19020976  .00001087  00000+0  49018-4 0  9995
2 59782  43.0032 118.2529 0001363 263.4676  96.6020 15.27587507 66103
STARLINK-31868          
1 59783U 24093B   25193.86456346 -.00000112  00000+0  54623-5 0  9991
2 59783  43.0043 120.0781 0001259 262.0507  98.0201 15.27574189 66052
STARLINK-31848          
1 59784U 24093C   25193.51192997  .00003255  00000+0  12788-3 0  9997
2 59784  43.0038 121.8106 0003209 266.3815  93.6669 15.27552487 66004
STARLINK-31890          
1 59785U 24093D   25193.51580030 -.00000813  00000+0 -20020-4 0  9995
2 59785  43.0034 121.8355 0001273 277.9623  82.1084 15.27572393 66003
STARLINK-31862          
1 59786U 24093E   25194.07680872  .00000126  00000+0  14085-4 0  9992
2 59786  42.9998 121.7652 0000889 251.9622 108.1133 15.27581181 65900
STARLINK-31870          
1 59787U 24093F   25193.81140761  .00000097  00000+0  13056-4 0  9996
2 59787  43.0012 123.2121 0001526 262.9183  97.1495 15.27575492 66010
STARLINK-31888          
1 59788U 24093G   25194.21400298  .00000395  00000+0  23866-4 0  9997
2 59788  43.0002 121.0727 0001463 255.9373 104.1316 15.27584337 66021
STARLINK-31863          
1 59789U 24093H   25193.81911930 -.00000074  00000+0  68433-5 0  9998
2 59789  43.0010 123.2720 0001126 270.0095  90.0627 15.27573157 66018
STARLINK-31873          
1 59790U 24093J   25194.22170147  .00000307  00000+0  20673-4 0  9994
2 59790  43.0039 121.1308 0001754 275.8049  84.2603 15.27583922 66075
STARLINK-31865          
1 59791U 24093K   25194.09479687 -.00000509  00000+0 -89721-5 0  9997
2 59791  42.9971 121.9008 0000757 267.6142  92.4623 15.27575391 66051
STARLINK-31823          
1 59794U 24093N   25194.09865380 -.00000567  00000+0 -11111-4 0  9990
2 59794  43.0019 121.9286 0000676 281.0551  79.0224 15.27573109 66054
STARLINK-31916          
1 59795U 24093P   25194.10250561  .00000069  00000+0  12012-4 0  9998
2 59795  43.0014 121.9591 0000898 249.4370 110.6385 15.27572078 66056
STARLINK-31907          
1 59797U 24093R   25194.17046507 -.00000565  00000+0 -11016-4 0  9996
2 59797  43.0027 121.6116 0000898 290.4981  69.5774 15.27573102 66015
STARLINK-31687          
1 59798U 24093S   25193.80384407 -.00000816  00000+0 -20139-4 0  9995
2 59798  43.0027 124.0138 0001492 264.8371  95.2311 15.27584136 66007
